{"type": "FeatureCollection", "features": [ {"type": "Feature", "properties": {"norad_id": 66627, "name": "STARLINK-35904", "group": "last-30-days", "lat": -49.9189567985685, "lon": 85.26932648101287, "alt_km": 382.82381145502586, "timestamp": "2025-12-09T14:52:24.942778+00:00", "meta": {"OBJECT_NAME": "STARLINK-35904", "OBJECT_ID": "2025-271L", "EPOCH": "2025-12-09T06:00:02.000160", "MEAN_MOTION": 15.65182932, "ECCENTRICITY": 7.383e-05, "INCLINATION": 53.1589, "RA_OF_ASC_NODE": 204.0833, "ARG_OF_PERICENTER": 101.6445, "MEAN_ANOMALY": 228.0413, "EPHEMERIS_TYPE": 0, "CLASSIFICATION_TYPE": "U", "NORAD_CAT_ID": 66627, "ELEMENT_SET_NO": 999, "REV_AT_EPOCH": 352, "BSTAR": -0.022931977, "MEAN_MOTION_DOT": -0.02029279, "MEAN_MOTION_DDOT": 0}, "tle": {"line1": "1 66627U 25271L   25343.25002315 -.02029279  00000+0 -22932-1 0  9990", "line2": "2 66627  53.1589 204.0833 0000738 101.6445 228.0413 15.65182932  3521"}}, "geometry": {"type": "Point", "coordinates": [85.26932648101287, -49.9189567985685]}}, {"type": "Feature", "properties": {"norad_id": 66628, "name": "STARLINK-35862", "group": "last-30-days", "lat": -50.58015891178307, "lon": 88.07243342154212, "alt_km": 382.8936365580321, "timestamp": "2025-12-09T14:52:24.942788+00:00", "meta": {"OBJECT_NAME": "STARLINK-35862", "OBJECT_ID": "2025-271M", "EPOCH": "2025-12-09T06:00:02.000160", "MEAN_MOTION": 15.65184118, "ECCENTRICITY": 7.52e-05, "INCLINATION": 53.1588, "RA_OF_ASC_NODE": 204.0798, "ARG_OF_PERICENTER": 94.345, "MEAN_ANOMALY": 237.2577, "EPHEMERIS_TYPE": 0, "CLASSIFICATION_TYPE": "U", "NORAD_CAT_ID": 66628, "ELEMENT_SET_NO": 999, "REV_AT_EPOCH": 368, "BSTAR": -0.022947679, "MEAN_MOTION_DOT": -0.02030592, "MEAN_MOTION_DDOT": 0}, "tle": {"line1": "1 66628U 25271M   25343.25002315 -.02030592  00000+0 -22948-1 0  9998", "line2": "2 66628  53.1588 204.0798 0000752  94.3450 237.2577 15.65184118  3689"}}, "geometry": {"type": "Point", "coordinates": [88.07243342154212, -50.58015891178307]}}, {"type": "Feature", "properties": {"norad_id": 66629, "name": "STARLINK-35956", "group": "last-30-days", "lat": -51.172298639611824, "lon": 90.95203122523017, "alt_km": 382.86326417098735, "timestamp": "2025-12-09T14:52:24.942798+00:00", "meta": {"OBJECT_NAME": "STARLINK-35956", "OBJECT_ID": "2025-271N", "EPOCH": "2025-12-09T06:00:02.000160", "MEAN_MOTION": 15.6518401, "ECCENTRICITY": 6.565e-05, "INCLINATION": 53.1587, "RA_OF_ASC_NODE": 204.0759, "ARG_OF_PERICENTER": 93.2112, "MEAN_ANOMALY": 240.3112, "EPHEMERIS_TYPE": 0, "CLASSIFICATION_TYPE": "U", "NORAD_CAT_ID": 66629, "ELEMENT_SET_NO": 999, "REV_AT_EPOCH": 368, "BSTAR": -0.02298641, "MEAN_MOTION_DOT": -0.02033515, "MEAN_MOTION_DDOT": 0}, "tle": {"line1": "1 66629U 25271N   25343.25002315 -.02033515  00000+0 -22986-1 0  9999", "line2": "2 66629  53.1587 204.0759 0000656  93.2112 240.3112 15.65184010  3683"}}, "geometry": {"type": "Point", "coordinates": [90.95203122523017, -51.172298639611824]}}, {"type": "Feature", "properties": {"norad_id": 66630, "name": "STARLINK-35949", "group": "last-30-days", "lat": -51.692163060077654, "lon": 93.90276482186705, "alt_km": 382.95544575896474, "timestamp": "2025-12-09T14:52:24.942808+00:00", "meta": {"OBJECT_NAME": "STARLINK-35949", "OBJECT_ID": "2025-271P", "EPOCH": "2025-12-09T06:00:02.000160", "MEAN_MOTION": 15.65188597, "ECCENTRICITY": 7.782e-05, "INCLINATION": 53.1587, "RA_OF_ASC_NODE": 204.0711, "ARG_OF_PERICENTER": 96.7645, "MEAN_ANOMALY": 238.6725, "EPHEMERIS_TYPE": 0, "CLASSIFICATION_TYPE": "U", "NORAD_CAT_ID": 66630, "ELEMENT_SET_NO": 999, "REV_AT_EPOCH": 368, "BSTAR": -0.023056381, "MEAN_MOTION_DOT": -0.02039352, "MEAN_MOTION_DDOT": 0}, "tle": {"line1": "1 66630U 25271P   25343.25002315 -.02039352  00000+0 -23056-1 0  9995", "line2": "2 66630  53.1587 204.0711 0000778  96.7645 238.6725 15.65188597  3681"}}, "geometry": {"type": "Point", "coordinates": [93.90276482186705, -51.692163060077654]}}, {"type": "Feature", "properties": {"norad_id": 66631, "name": "STARLINK-35965", "group": "last-30-days", "lat": -52.1359760155392, "lon": 96.91414635403777, "alt_km": 382.9084858622509, "timestamp": "2025-12-09T14:52:24.942820+00:00", "meta": {"OBJECT_NAME": "STARLINK-35965", "OBJECT_ID": "2025-271Q", "EPOCH": "2025-12-09T06:00:02.000160", "MEAN_MOTION": 15.65184654, "ECCENTRICITY": 6.87e-05, "INCLINATION": 53.159, "RA_OF_ASC_NODE": 204.0675, "ARG_OF_PERICENTER": 96.9572, "MEAN_ANOMALY": 240.398, "EPHEMERIS_TYPE": 0, "CLASSIFICATION_TYPE": "U", "NORAD_CAT_ID": 66631, "ELEMENT_SET_NO": 999, "REV_AT_EPOCH": 368, "BSTAR": -0.022991674, "MEAN_MOTION_DOT": -0.0203399, "MEAN_MOTION_DDOT": 0}, "tle": {"line1": "1 66631U 25271Q   25343.25002315 -.02033990  00000+0 -22992-1 0  9996", "line2": "2 66631  53.1590 204.0675 0000687  96.9572 240.3980 15.65184654  3688"}}, "geometry": {"type": "Point", "coordinates": [96.91414635403777, -52.1359760155392]}}, {"type": "Feature", "properties": {"norad_id": 66632, "name": "STARLINK-35973", "group": "last-30-days", "lat": -52.501224532311916, "lon": 99.98168861630464, "alt_km": 382.9390237059524, "timestamp": "2025-12-09T14:52:24.942830+00:00", "meta": {"OBJECT_NAME": "STARLINK-35973", "OBJECT_ID": "2025-271R", "EPOCH": "2025-12-09T06:00:02.000160", "MEAN_MOTION": 15.65184519, "ECCENTRICITY": 6.983e-05, "INCLINATION": 53.1589, "RA_OF_ASC_NODE": 204.0632, "ARG_OF_PERICENTER": 88.6908, "MEAN_ANOMALY": 250.5833, "EPHEMERIS_TYPE": 0, "CLASSIFICATION_TYPE": "U", "NORAD_CAT_ID": 66632, "ELEMENT_SET_NO": 999, "REV_AT_EPOCH": 362, "BSTAR": -0.022999848, "MEAN_MOTION_DOT": -0.02034622, "MEAN_MOTION_DDOT": 0}, "tle": {"line1": "1 66632U 25271R   25343.25002315 -.02034622  00000+0 -23000-1 0  9991", "line2": "2 66632  53.1589 204.0632 0000698  88.6908 250.5833 15.65184519  3627"}}, "geometry": {"type": "Point", "coordinates": [99.98168861630464, -52.501224532311916]}}, {"type": "Feature", "properties": {"norad_id": 66633, "name": "STARLINK-35948", "group": "last-30-days", "lat": -52.78576621196647, "lon": 103.09437849642481, "alt_km": 382.93168839585996, "timestamp": "2025-12-09T14:52:24.942840+00:00", "meta": {"OBJECT_NAME": "STARLINK-35948", "OBJECT_ID": "2025-271S", "EPOCH": "2025-12-09T06:00:02.000160", "MEAN_MOTION": 15.65187537, "ECCENTRICITY": 6.954e-05, "INCLINATION": 53.1589, "RA_OF_ASC_NODE": 204.0587, "ARG_OF_PERICENTER": 98.7108, "MEAN_ANOMALY": 242.4748, "EPHEMERIS_TYPE": 0, "CLASSIFICATION_TYPE": "U", "NORAD_CAT_ID": 66633, "ELEMENT_SET_NO": 999, "REV_AT_EPOCH": 368, "BSTAR": -0.023015984, "MEAN_MOTION_DOT": -0.02036087, "MEAN_MOTION_DDOT": 0}, "tle": {"line1": "1 66633U 25271S   25343.25002315 -.02036087  00000+0 -23016-1 0  9996", "line2": "2 66633  53.1589 204.0587 0000695  98.7108 242.4748 15.65187537  3682"}}, "geometry": {"type": "Point", "coordinates": [103.09437849642481, -52.78576621196647]}}, {"type": "Feature", "properties": {"norad_id": 66634, "name": "STARLINK-35967", "group": "last-30-days", "lat": -52.987601006185166, "lon": 106.24353793675206, "alt_km": 382.96613970859835, "timestamp": "2025-12-09T14:52:24.942852+00:00", "meta": {"OBJECT_NAME": "STARLINK-35967", "OBJECT_ID": "2025-271T", "EPOCH": "2025-12-09T06:00:02.000160", "MEAN_MOTION": 15.65187458, "ECCENTRICITY": 7.22e-05, "INCLINATION": 53.1588, "RA_OF_ASC_NODE": 204.0546, "ARG_OF_PERICENTER": 93.7343, "MEAN_ANOMALY": 249.3703, "EPHEMERIS_TYPE": 0, "CLASSIFICATION_TYPE": "U", "NORAD_CAT_ID": 66634, "ELEMENT_SET_NO": 999, "REV_AT_EPOCH": 361, "BSTAR": -0.0230323, "MEAN_MOTION_DOT": -0.02037364, "MEAN_MOTION_DDOT": 0}, "tle": {"line1": "1 66634U 25271T   25343.25002315 -.02037364  00000+0 -23032-1 0  9994", "line2": "2 66634  53.1588 204.0546 0000722  93.7343 249.3703 15.65187458  3616"}}, "geometry": {"type": "Point", "coordinates": [106.24353793675206, -52.987601006185166]}}, {"type": "Feature", "properties": {"norad_id": 66635, "name": "STARLINK-35955", "group": "last-30-days", "lat": -53.10551933148496, "lon": 109.41555182277712, "alt_km": 382.9499799969335, "timestamp": "2025-12-09T14:52:24.942864+00:00", "meta": {"OBJECT_NAME": "STARLINK-35955", "OBJECT_ID": "2025-271U", "EPOCH": "2025-12-09T06:00:02.000160", "MEAN_MOTION": 15.65184583, "ECCENTRICITY": 6.962e-05, "INCLINATION": 53.1589, "RA_OF_ASC_NODE": 204.0507, "ARG_OF_PERICENTER": 95.5304, "MEAN_ANOMALY": 249.4924, "EPHEMERIS_TYPE": 0, "CLASSIFICATION_TYPE": "U", "NORAD_CAT_ID": 66635, "ELEMENT_SET_NO": 999, "REV_AT_EPOCH": 368, "BSTAR": -0.022990152, "MEAN_MOTION_DOT": -0.02033874, "MEAN_MOTION_DDOT": 0}, "tle": {"line1": "1 66635U 25271U   25343.25002315 -.02033874  00000+0 -22990-1 0  9999", "line2": "2 66635  53.1589 204.0507 0000696  95.5304 249.4924 15.65184583  3681"}}, "geometry": {"type": "Point", "coordinates": [109.41555182277712, -53.10551933148496]}}, {"type": "Feature", "properties": {"norad_id": 66636, "name": "STARLINK-35968", "group": "last-30-days", "lat": -53.13815581251953, "lon": 112.5994463303989, "alt_km": 382.9563993490092, "timestamp": "2025-12-09T14:52:24.942874+00:00", "meta": {"OBJECT_NAME": "STARLINK-35968", "OBJECT_ID": "2025-271V", "EPOCH": "2025-12-09T06:00:02.000160", "MEAN_MOTION": 15.65185554, "ECCENTRICITY": 6.998e-05, "INCLINATION": 53.1586, "RA_OF_ASC_NODE": 204.0467, "ARG_OF_PERICENTER": 92.455, "MEAN_ANOMALY": 254.4863, "EPHEMERIS_TYPE": 0, "CLASSIFICATION_TYPE": "U", "NORAD_CAT_ID": 66636, "ELEMENT_SET_NO": 999, "REV_AT_EPOCH": 368, "BSTAR": -0.023029681, "MEAN_MOTION_DOT": -0.02037008, "MEAN_MOTION_DDOT": 0}, "tle": {"line1": "1 66636U 25271V   25343.25002315 -.02037008  00000+0 -23030-1 0  9999", "line2": "2 66636  53.1586 204.0467 0000699  92.4550 254.4863 15.65185554  3683"}}, "geometry": {"type": "Point", "coordinates": [112.5994463303989, -53.13815581251953]}}]}